{
  "type": "FeatureCollection",
  "features": [
    {
      "type": "Feature",
      "properties": {
        "norad_id": 37069,
        "name": "FENGYUN 1C DEB",
        "group": "fengyun-1c-debris",
        "lat": 19.44470460669366,
        "lon": 144.80503510577617,
        "alt_km": 997.1528872879289,
        "timestamp": "2025-12-22T09:53:37.690461+00:00",
        "meta_object_name": "FENGYUN 1C DEB",
        "meta_object_id": "1999-025EFD",
        "meta_epoch": "2025-12-21T04:20:13.765632",
        "meta_mean_motion": 13.38005069,
        "meta_eccentricity": 0.04234335,
        "meta_inclination": 95.8488,
        "meta_ra_of_asc_node": 322.0189,
        "meta_arg_of_pericenter": 233.7857,
        "meta_mean_anomaly": 122.3437,
        "meta_ephemeris_type": 0,
        "meta_classification_type": "U",
        "meta_norad_cat_id": 37069,
        "meta_element_set_no": 999,
        "meta_rev_at_epoch": 87821,
        "meta_bstar": 0.00093197507,
        "meta_mean_motion_dot": 8.07e-06,
        "meta_mean_motion_ddot": 0,
        "tle_line1": "1 37069U 99025EFD 25355.18071488  .00000807  00000+0  93198-3 0  9994",
        "tle_line2": "2 37069  95.8488 322.0189 0423433 233.7857 122.3437 13.38005069878211"
      },
      "geometry": {
        "type": "Point",
        "coordinates": [
          144.80503510577617,
          19.44470460669366
        ]
      }
    },
    {
      "type": "Feature",
      "properties": {
        "norad_id": 37077,
        "name": "FENGYUN 1C DEB",
        "group": "fengyun-1c-debris",
        "lat": 78.38081485928406,
        "lon": 21.401370057244353,
        "alt_km": 801.1580189548094,
        "timestamp": "2025-12-22T09:53:37.690471+00:00",
        "meta_object_name": "FENGYUN 1C DEB",
        "meta_object_id": "1999-025EFM",
        "meta_epoch": "2025-12-20T22:31:12.417024",
        "meta_mean_motion": 14.41212423,
        "meta_eccentricity": 0.009539,
        "meta_inclination": 99.0344,
        "meta_ra_of_asc_node": 70.5383,
        "meta_arg_of_pericenter": 304.1526,
        "meta_mean_anomaly": 55.0643,
        "meta_ephemeris_type": 0,
        "meta_classification_type": "U",
        "meta_norad_cat_id": 37077,
        "meta_element_set_no": 999,
        "meta_rev_at_epoch": 85073,
        "meta_bstar": 0.00025476,
        "meta_mean_motion_dot": 8.15e-06,
        "meta_mean_motion_ddot": 0,
        "tle_line1": "1 37077U 99025EFM 25354.93833816  .00000815  00000+0  25476-3 0  9999",
        "tle_line2": "2 37077  99.0344  70.5383 0095390 304.1526  55.0643 14.41212423850738"
      },
      "geometry": {
        "type": "Point",
        "coordinates": [
          21.401370057244353,
          78.38081485928406
        ]
      }
    },
    {
      "type": "Feature",
      "properties": {
        "norad_id": 37079,
        "name": "FENGYUN 1C DEB",
        "group": "fengyun-1c-debris",
        "lat": -44.62042595016431,
        "lon": -56.8249206401864,
        "alt_km": 702.2290970315526,
        "timestamp": "2025-12-22T09:53:37.690481+00:00",
        "meta_object_name": "FENGYUN 1C DEB",
        "meta_object_id": "1999-025EFP",
        "meta_epoch": "2025-12-18T02:53:46.135104",
        "meta_mean_motion": 14.6004098,
        "meta_eccentricity": 0.00113024,
        "meta_inclination": 98.8569,
        "meta_ra_of_asc_node": 127.4448,
        "meta_arg_of_pericenter": 127.1954,
        "meta_mean_anomaly": 233.0277,
        "meta_ephemeris_type": 0,
        "meta_classification_type": "U",
        "meta_norad_cat_id": 37079,
        "meta_element_set_no": 999,
        "meta_rev_at_epoch": 64694,
        "meta_bstar": 0.0027811281,
        "meta_mean_motion_dot": 0.00013341,
        "meta_mean_motion_ddot": 0,
        "tle_line1": "1 37079U 99025EFP 25352.12067286  .00013341  00000+0  27811-2 0  9992",
        "tle_line2": "2 37079  98.8569 127.4448 0011302 127.1954 233.0277 14.60040980646944"
      },
      "geometry": {
        "type": "Point",
        "coordinates": [
          -56.8249206401864,
          -44.62042595016431
        ]
      }
    },
    {
      "type": "Feature",
      "properties": {
        "norad_id": 37081,
        "name": "FENGYUN 1C DEB",
        "group": "fengyun-1c-debris",
        "lat": -70.29081804509651,
        "lon": -56.86254915137068,
        "alt_km": 776.8118924993687,
        "timestamp": "2025-12-22T09:53:37.690490+00:00",
        "meta_object_name": "FENGYUN 1C DEB",
        "meta_object_id": "1999-025EFR",
        "meta_epoch": "2025-12-21T15:41:59.866368",
        "meta_mean_motion": 14.13992417,
        "meta_eccentricity": 0.0266704,
        "meta_inclination": 98.7038,
        "meta_ra_of_asc_node": 147.7147,
        "meta_arg_of_pericenter": 322.5085,
        "meta_mean_anomaly": 35.7745,
        "meta_ephemeris_type": 0,
        "meta_classification_type": "U",
        "meta_norad_cat_id": 37081,
        "meta_element_set_no": 999,
        "meta_rev_at_epoch": 58700,
        "meta_bstar": 0.0028473,
        "meta_mean_motion_dot": 7.567e-05,
        "meta_mean_motion_ddot": 0,
        "tle_line1": "1 37081U 99025EFR 25355.65416512  .00007567  00000+0  28473-2 0  9994",
        "tle_line2": "2 37081  98.7038 147.7147 0266704 322.5085  35.7745 14.13992417587009"
      },
      "geometry": {
        "type": "Point",
        "coordinates": [
          -56.86254915137068,
          -70.29081804509651
        ]
      }
    },
    {
      "type": "Feature",
      "properties": {
        "norad_id": 37400,
        "name": "FENGYUN 1C DEB",
        "group": "fengyun-1c-debris",
        "lat": 80.44468143128546,
        "lon": 125.39154021271814,
        "alt_km": 743.2732859133321,
        "timestamp": "2025-12-22T09:53:37.690500+00:00",
        "meta_object_name": "FENGYUN 1C DEB",
        "meta_object_id": "1999-025EFS",
        "meta_epoch": "2025-12-21T07:04:10.924032",
        "meta_mean_motion": 13.63653969,
        "meta_eccentricity": 0.0401794,
        "meta_inclination": 98.8374,
        "meta_ra_of_asc_node": 191.9168,
        "meta_arg_of_pericenter": 114.2365,
        "meta_mean_anomaly": 250.1307,
        "meta_ephemeris_type": 0,
        "meta_classification_type": "U",
        "meta_norad_cat_id": 37400,
        "meta_element_set_no": 999,
        "meta_rev_at_epoch": 80310,
        "meta_bstar": 0.00033721,
        "meta_mean_motion_dot": 4.26e-06,
        "meta_mean_motion_ddot": 0,
        "tle_line1": "1 37400U 99025EFS 25355.29457088  .00000426  00000+0  33721-3 0  9992",
        "tle_line2": "2 37400  98.8374 191.9168 0401794 114.2365 250.1307 13.63653969803108"
      },
      "geometry": {
        "type": "Point",
        "coordinates": [
          125.39154021271814,
          80.44468143128546
        ]
      }
    },
    {
      "type": "Feature",
      "properties": {
        "norad_id": 37404,
        "name": "FENGYUN 1C DEB",
        "group": "fengyun-1c-debris",
        "lat": 58.40952690576881,
        "lon": -14.990558799252199,
        "alt_km": 771.7124252820067,
        "timestamp": "2025-12-22T09:53:37.690510+00:00",
        "meta_object_name": "FENGYUN 1C DEB",
        "meta_object_id": "1999-025EFW",
        "meta_epoch": "2025-12-19T20:07:18.270624",
        "meta_mean_motion": 14.31663864,
        "meta_eccentricity": 0.00447811,
        "meta_inclination": 98.4519,
        "meta_ra_of_asc_node": 356.4953,
        "meta_arg_of_pericenter": 141.4777,
        "meta_mean_anomaly": 340.5806,
        "meta_ephemeris_type": 0,
        "meta_classification_type": "U",
        "meta_norad_cat_id": 37404,
        "meta_element_set_no": 999,
        "meta_rev_at_epoch": 82842,
        "meta_bstar": 0.00044732282,
        "meta_mean_motion_dot": 1.163e-05,
        "meta_mean_motion_ddot": 0,
        "tle_line1": "1 37404U 99025EFW 25353.83840591  .00001163  00000+0  44732-3 0  9992",
        "tle_line2": "2 37404  98.4519 356.4953 0044781 141.4777 340.5806 14.31663864828428"
      },
      "geometry": {
        "type": "Point",
        "coordinates": [
          -14.990558799252199,
          58.40952690576881
        ]
      }
    },
    {
      "type": "Feature",
      "properties": {
        "norad_id": 37406,
        "name": "FENGYUN 1C DEB",
        "group": "fengyun-1c-debris",
        "lat": 70.24077631991655,
        "lon": 72.3008577184748,
        "alt_km": 942.4194034818547,
        "timestamp": "2025-12-22T09:53:37.690520+00:00",
        "meta_object_name": "FENGYUN 1C DEB",
        "meta_object_id": "1999-025EFY",
        "meta_epoch": "2025-12-18T11:54:12.055968",
        "meta_mean_motion": 14.04312193,
        "meta_eccentricity": 0.01490772,
        "meta_inclination": 98.4429,
        "meta_ra_of_asc_node": 224.2353,
        "meta_arg_of_pericenter": 250.1926,
        "meta_mean_anomaly": 231.2149,
        "meta_ephemeris_type": 0,
        "meta_classification_type": "U",
        "meta_norad_cat_id": 37406,
        "meta_element_set_no": 999,
        "meta_rev_at_epoch": 63313,
        "meta_bstar": 0.000752683,
        "meta_mean_motion_dot": 1.28e-05,
        "meta_mean_motion_ddot": 0,
        "tle_line1": "1 37406U 99025EFY 25352.49597287  .00001280  00000+0  75268-3 0  9994",
        "tle_line2": "2 37406  98.4429 224.2353 0149077 250.1926 231.2149 14.04312193633138"
      },
      "geometry": {
        "type": "Point",
        "coordinates": [
          72.3008577184748,
          70.24077631991655
        ]
      }
    }
  ]
}